ONEWEB-0210             
1 48787U 21045W   24178.12859134  .00000019  00000+0  16683-4 0  9998
2 48787  87.9027  42.6743 0002755  80.4153 279.7288 13.15549100149517
ONEWEB-0214             
1 48788U 21045X   24178.13810152  .00000130  00000+0  31160-3 0  9997
2 48788  87.9026  42.6609 0002474  86.8141 273.3272 13.15549558149489
ONEWEB-0221             
1 48789U 21045Y   24178.14443883  .00000173  00000+0  42667-3 0  9993
2 48789  87.9030  42.6779 0001995  74.2126 285.9225 13.15547472149574
ONEWEB-0213             
1 48790U 21045Z   24178.13334454  .00000051  00000+0  10237-3 0  9990
2 48790  87.9028  42.6936 0002141  75.8492 284.2876 13.15549781149631
ONEWEB-0212             
1 48791U 21045AA  24178.18642168 -.00000113  00000+0 -33524-3 0  9995
2 48791  87.9031  42.6659 0001753  79.6814 280.4514 13.15550466150772
ONEWEB-0227             
1 48792U 21045AB  24178.10957196 -.00000078  00000+0 -24198-3 0  9995
2 48792  87.9032  42.6968 0001914  77.9132 282.2213 13.15550081149575
ONEWEB-0226             
1 48793U 21045AC  24178.33140231  .00000369  00000+0  94469-3 0  9994
2 48793  87.9032  42.6583 0002344  82.5322 277.6075 13.15553015149574
ONEWEB-0224             
1 48794U 21045AD  24178.14285618  .00000145  00000+0  35059-3 0  9995
2 48794  87.9033  42.7180 0001833  45.0784 315.0495 13.15549480149471
